[{"OBJECT_NAME":"STARLINK-34934","OBJECT_ID":"2025-224R","EPOCH":"2026-03-09T06:41:56.567616","MEAN_MOTION":15.30192145,"ECCENTRICITY":0.00014124,"INCLINATION":53.1605,"RA_OF_ASC_NODE":13.0952,"ARG_OF_PERICENTER":84.2251,"MEAN_ANOMALY":275.8911,"EPHEMERIS_TYPE":0,"CLASSIFICATION_TYPE":"U","NORAD_CAT_ID":65897,"ELEMENT_SET_NO":999,"REV_AT_EPOCH":2476,"BSTAR":0.00081097584,"MEAN_MOTION_DOT":0.00023731,"MEAN_MOTION_DDOT":0},{"OBJECT_NAME":"COSMOS 1328","OBJECT_ID":"1981-117A","EPOCH":"2026-03-09T17:51:53.113536","MEAN_MOTION":15.33902077,"ECCENTRICITY":0.00108717,"INCLINATION":82.4939,"RA_OF_ASC_NODE":350.453,"ARG_OF_PERICENTER":167.9725,"MEAN_ANOMALY":192.1779,"EPHEMERIS_TYPE":0,"CLASSIFICATION_TYPE":"U","NORAD_CAT_ID":12987,"ELEMENT_SET_NO":999,"REV_AT_EPOCH":41406,"BSTAR":0.00040501644,"MEAN_MOTION_DOT":0.00013342,"MEAN_MOTION_DDOT":0}]
